ONEWEB-0068             
1 45446U 20020Y   26161.59182378  .00000364  00000+0  99209-3 0  9990
2 45446  87.8904  22.3763 0001790  77.4113 282.7215 13.11418821301735
ONEWEB-0046             
1 45447U 20020Z   26161.58346731 -.00000003  00000+0 -43570-4 0  9998
2 45447  87.8893  22.3842 0002042  79.5981 280.5377 13.11419941301748
ONEWEB-0063             
1 45448U 20020AA  26161.61243988  .00000387  00000+0  10550-2 0  9996
2 45448  87.8900  22.3767 0002119  87.1343 273.0027 13.11417314301837
ONEWEB-0019             
1 45449U 20020AB  26161.57485617 -.00000313  00000+0 -91863-3 0  9997
2 45449  87.8897  22.3713 0001690  87.4670 272.6652 13.11419260301676
ONEWEB-0094             
1 45450U 20020AC  26161.59647857 -.00000209  00000+0 -57248-3 0  9990
2 45450  87.9145   7.1597 0001661  83.3672 276.7649 13.17648663305448
ONEWEB-0087             
1 45451U 20020AD  26161.62233341 -.00000028  00000+0 -11429-3 0  9994
2 45451  87.8910  22.3484 0001755  74.8742 285.2580 13.11415514301726
ONEWEB-0082             
1 45452U 20020AE  26161.61895628  .00000137  00000+0  34950-3 0  9999
2 45452  87.8900  22.3660 0001995  70.8627 289.2717 13.11415918301810
ONEWEB-0050             
1 45453U 20020AF  26161.62961316  .00002024  00000+0  20598-3 0  9999
2 45453  88.9299 234.1006 0004150  42.0887 318.0660 14.90354488339402
ONEWEB-0034             
1 45454U 20020AG  26161.58019189  .00017653  00000+0  49750-1 0  9990
2 45454  87.8902  22.3829 0001604  80.5448 279.5862 13.11318637301720
ONEWEB-0060             
1 45455U 20020AH  26161.61145309  .00000398  00000+0  10870-2 0  9999
2 45455  87.8893  22.3754 0001591  50.0674 310.0594 13.11416036301685
ONEWEB-0086             
1 45456U 20020AJ  26161.59012013 -.00001992  00000+0 -56577-2 0  9999
2 45456  87.8901  22.3748 0001125  70.1176 290.0074 13.11429592301740
ONEWEB-0088             
1 45457U 20020AK  26161.64450857 -.00000468  00000+0 -13559-2 0  9998
2 45457  87.8913  22.3362 0002220  81.8486 278.2893 13.11418506301689
ONEWEB-0102             
1 47258U 20100A   26161.57756216  .00000180  00000+0  46414-3 0  9994
2 47258  87.8939 351.9905 0001540  94.0429 266.0876 13.12445506263863
ONEWEB-0109             
1 47259U 20100B   26161.58603966  .00000311  00000+0  82967-3 0  9998
2 47259  87.8948 351.9717 0001760  94.3847 265.7483 13.12444108263694
ONEWEB-0110             
1 47260U 20100C   26161.53690460  .00000040  00000+0  74735-4 0  9994
2 47260  87.8948 351.9655 0001543  85.2847 274.8457 13.12442438263859
ONEWEB-0111             
1 47261U 20100D   26161.56738717 -.00000226  00000+0 -66393-3 0  9994
2 47261  87.8948 351.9782 0001803  86.4170 273.7165 13.12442047263694
ONEWEB-0114             
1 47262U 20100E   26161.52166083  .00000417  00000+0  11241-2 0  9993
2 47262  87.8949 351.9846 0001954  96.4356 263.6996 13.12443463263649
ONEWEB-0117             
1 47263U 20100F   26161.51319408  .00000477  00000+0  12918-2 0  9992
2 47263  87.8948 351.9776 0001768  89.1337 270.9994 13.12443426263651
ONEWEB-0118             
1 47264U 20100G   26161.54706616 -.00000292  00000+0 -84693-3 0  9994
2 47264  87.8947 351.9731 0002107  93.0773 267.0597 13.12441663263857
ONEWEB-0119             
1 47265U 20100H   26161.57248598 -.00000088  00000+0 -28060-3 0  9997
2 47265  87.8937 351.9857 0001819  90.0741 270.0596 13.12444163263836
ONEWEB-0120             
1 47266U 20100J   26161.52011212  .00000474  00000+0  12829-2 0  9996
2 47266  87.8938 351.9972 0001788  95.5195 264.6138 13.12443464263850
ONEWEB-0121             
1 47267U 20100K   26161.58434701  .00000309  00000+0  82465-3 0  9996
2 47267  87.8948 351.9700 0001805  79.2083 280.9249 13.12444004263772
ONEWEB-0122             
1 47268U 20100L   26161.57842283  .00000199  00000+0  51829-3 0  9991
2 47268  87.8949 351.9754 0001696  93.4523 266.6799 13.12443871263680
ONEWEB-0123             
1 47269U 20100M   26161.57418017 -.00000004  00000+0 -46893-4 0  9999
2 47269  87.8938 351.9844 0001913  90.0909 270.0439 13.12444916263829
ONEWEB-0124             
1 47270U 20100N   26161.56401044 -.00000251  00000+0 -73234-3 0  9994
2 47270  87.8936 351.9896 0001825  86.0538 274.0799 13.12444974263705
ONEWEB-0125             
1 47271U 20100P   26161.54198348 -.00000029  00000+0 -11478-3 0  9998
2 47271  87.8948 351.9762 0002027  82.7786 277.3573 13.12442544263767
ONEWEB-0126             
1 47272U 20100Q   26161.56245930 -.00000304  00000+0 -88177-3 0  9997
2 47272  87.8941 351.9886 0001841  93.6482 266.4857 13.12443228263837
ONEWEB-0127             
1 47273U 20100R   26161.52843497  .00000366  00000+0  98190-3 0  9998
2 47273  87.8935 351.9944 0001776  93.9091 266.2241 13.12443078263852
ONEWEB-0128             
1 47274U 20100S   26161.55045044 -.00000321  00000+0 -92893-3 0  9991
2 47274  87.8936 352.0037 0001532  83.8968 276.2335 13.12442086263875
ONEWEB-0129             
1 47275U 20100T   26161.53013195  .00000247  00000+0  65063-3 0  9996
2 47275  87.8947 351.9809 0002123 122.0050 238.1285 13.12441909263805
