OBJECT_NAME,OBJECT_ID,EPOCH,MEAN_MOTION,ECCENTRICITY,INCLINATION,RA_OF_ASC_NODE,ARG_OF_PERICENTER,MEAN_ANOMALY,EPHEMERIS_TYPE,CLASSIFICATION_TYPE,NORAD_CAT_ID,ELEMENT_SET_NO,REV_AT_EPOCH,BSTAR,MEAN_MOTION_DOT,MEAN_MOTION_DDOT
ONEWEB-0068,2020-020Y,2026-06-10T14:12:13.574592,13.11418821,.00017908,87.8904,22.3763,77.4113,282.7215,0,U,45446,999,30173,.99209189E-3,.364E-5,0
ONEWEB-0046,2020-020Z,2026-06-10T14:00:11.575584,13.11419941,.00020429,87.8893,22.3842,79.5981,280.5377,0,U,45447,999,30174,-.43570002E-4,-.3E-7,0
ONEWEB-0063,2020-020AA,2026-06-10T14:41:54.805632,13.11417314,.00021199,87.8900,22.3767,87.1343,273.0027,0,U,45448,999,30183,.10549712E-2,.387E-5,0
ONEWEB-0019,2020-020AB,2026-06-10T13:47:47.573088,13.11419260,.00016903,87.8897,22.3713,87.4670,272.6652,0,U,45449,999,30167,-.91863042E-3,-.313E-5,0
ONEWEB-0094,2020-020AC,2026-06-10T14:18:55.748448,13.17648663,.00016611,87.9145,7.1597,83.3672,276.7649,0,U,45450,999,30544,-.57248485E-3,-.209E-5,0
ONEWEB-0087,2020-020AD,2026-06-10T14:56:09.606624,13.11415514,.00017557,87.8910,22.3484,74.8742,285.2580,0,U,45451,999,30172,-.11428527E-3,-.28E-6,0
ONEWEB-0082,2020-020AE,2026-06-10T14:51:17.822592,13.11415918,.00019954,87.8900,22.3660,70.8627,289.2717,0,U,45452,999,30181,.34950031E-3,.137E-5,0
ONEWEB-0050,2020-020AF,2026-06-10T15:06:38.577024,14.90354488,.00041501,88.9299,234.1006,42.0887,318.0660,0,U,45453,999,33940,.20598289E-3,.2024E-4,0
ONEWEB-0034,2020-020AG,2026-06-10T13:55:28.579296,13.11318637,.00016047,87.8902,22.3829,80.5448,279.5862,0,U,45454,999,30172,.49750443E-1,.17653E-3,0
ONEWEB-0060,2020-020AH,2026-06-10T14:40:29.546976,13.11416036,.00015919,87.8893,22.3754,50.0674,310.0594,0,U,45455,999,30168,.10870336E-2,.398E-5,0
ONEWEB-0086,2020-020AJ,2026-06-10T14:09:46.379232,13.11429592,.00011252,87.8901,22.3748,70.1176,290.0074,0,U,45456,999,30174,-.56577106E-2,-.1992E-4,0
ONEWEB-0088,2020-020AK,2026-06-10T15:28:05.540448,13.11418506,.00022204,87.8913,22.3362,81.8486,278.2893,0,U,45457,999,30168,-.13558853E-2,-.468E-5,0
ONEWEB-0102,2020-100A,2026-06-10T13:51:41.370624,13.12445506,.00015401,87.8939,351.9905,94.0429,266.0876,0,U,47258,999,26386,.46414135E-3,.18E-5,0
ONEWEB-0109,2020-100B,2026-06-10T14:03:53.826624,13.12444108,.000176,87.8948,351.9717,94.3847,265.7483,0,U,47259,999,26369,.82967008E-3,.311E-5,0
ONEWEB-0110,2020-100C,2026-06-10T12:53:08.557440,13.12442438,.00015435,87.8948,351.9655,85.2847,274.8457,0,U,47260,999,26385,.74735431E-4,.4E-6,0
ONEWEB-0111,2020-100D,2026-06-10T13:37:02.251488,13.12442047,.00018033,87.8948,351.9782,86.4170,273.7165,0,U,47261,999,26369,-.66392736E-3,-.226E-5,0
ONEWEB-0114,2020-100E,2026-06-10T12:31:11.495712,13.12443463,.00019543,87.8949,351.9846,96.4356,263.6996,0,U,47262,999,26364,.11241211E-2,.417E-5,0
ONEWEB-0117,2020-100F,2026-06-10T12:18:59.968512,13.12443426,.00017688,87.8948,351.9776,89.1337,270.9994,0,U,47263,999,26365,.12918014E-2,.477E-5,0
ONEWEB-0118,2020-100G,2026-06-10T13:07:46.516224,13.12441663,.00021074,87.8947,351.9731,93.0773,267.0597,0,U,47264,999,26385,-.84693088E-3,-.292E-5,0
ONEWEB-0119,2020-100H,2026-06-10T13:44:22.788672,13.12444163,.00018192,87.8937,351.9857,90.0741,270.0596,0,U,47265,999,26383,-.28060388E-3,-.88E-6,0
ONEWEB-0120,2020-100J,2026-06-10T12:28:57.687168,13.12443464,.00017887,87.8938,351.9972,95.5195,264.6138,0,U,47266,999,26385,.1282875E-2,.474E-5,0
ONEWEB-0121,2020-100K,2026-06-10T14:01:27.581664,13.12444004,.00018055,87.8948,351.9700,79.2083,280.9249,0,U,47267,999,26377,.82464721E-3,.309E-5,0
ONEWEB-0122,2020-100L,2026-06-10T13:52:55.732512,13.12443871,.00016968,87.8949,351.9754,93.4523,266.6799,0,U,47268,999,26368,.51828557E-3,.199E-5,0
ONEWEB-0123,2020-100M,2026-06-10T13:46:49.166688,13.12444916,.00019132,87.8938,351.9844,90.0909,270.0439,0,U,47269,999,26382,-.46893201E-4,-.4E-7,0
ONEWEB-0124,2020-100N,2026-06-10T13:32:10.502016,13.12444974,.00018253,87.8936,351.9896,86.0538,274.0799,0,U,47270,999,26370,-.73234486E-3,-.251E-5,0
ONEWEB-0125,2020-100P,2026-06-10T13:00:27.372672,13.12442544,.00020271,87.8948,351.9762,82.7786,277.3573,0,U,47271,999,26376,-.11477875E-3,-.29E-6,0
ONEWEB-0126,2020-100Q,2026-06-10T13:29:56.483520,13.12443228,.00018417,87.8941,351.9886,93.6482,266.4857,0,U,47272,999,26383,-.88177017E-3,-.304E-5,0
ONEWEB-0127,2020-100R,2026-06-10T12:40:56.781408,13.12443078,.00017767,87.8935,351.9944,93.9091,266.2241,0,U,47273,999,26385,.98189784E-3,.366E-5,0
ONEWEB-0128,2020-100S,2026-06-10T13:12:38.918016,13.12442086,.00015327,87.8936,352.0037,83.8968,276.2335,0,U,47274,999,26387,-.92892955E-3,-.321E-5,0
ONEWEB-0129,2020-100T,2026-06-10T12:43:23.400480,13.12441909,.00021233,87.8947,351.9809,122.0050,238.1285,0,U,47275,999,26380,.6506326E-3,.247E-5,0
